[{"OBJECT_NAME":"ONEWEB-0400","OBJECT_ID":"2021-132M","EPOCH":"2026-03-09T20:07:00.465312","MEAN_MOTION":13.18686798,"ECCENTRICITY":0.00019702,"INCLINATION":87.9252,"RA_OF_ASC_NODE":355.1736,"ARG_OF_PERICENTER":77.7422,"MEAN_ANOMALY":282.3931,"EPHEMERIS_TYPE":0,"CLASSIFICATION_TYPE":"U","NORAD_CAT_ID":50480,"ELEMENT_SET_NO":999,"REV_AT_EPOCH":20851,"BSTAR":8.7639317e-5,"MEAN_MOTION_DOT":4.7e-7,"MEAN_MOTION_DDOT":0},{"OBJECT_NAME":"OBJECT F","OBJECT_ID":"2021-020F","EPOCH":"2026-03-09T23:34:00.416064","MEAN_MOTION":13.44626351,"ECCENTRICITY":0.01637521,"INCLINATION":63.408,"RA_OF_ASC_NODE":160.6649,"ARG_OF_PERICENTER":1.5906,"MEAN_ANOMALY":358.5607,"EPHEMERIS_TYPE":0,"CLASSIFICATION_TYPE":"U","NORAD_CAT_ID":47859,"ELEMENT_SET_NO":999,"REV_AT_EPOCH":24506,"BSTAR":0.00039011787,"MEAN_MOTION_DOT":1.57e-6,"MEAN_MOTION_DDOT":0}]
